{
  "type": "FeatureCollection",
  "features": [
    {
      "type": "Feature",
      "properties": {
        "norad_id": 28051,
        "name": "IRS-P6 (RESOURCESAT-1)",
        "group": "resource",
        "lat": -40.70745151892552,
        "lon": -152.61343394559063,
        "alt_km": 757.2236421909365,
        "timestamp": "2025-12-20T11:30:28.027510+00:00",
        "meta_object_name": "IRS-P6 (RESOURCESAT-1)",
        "meta_object_id": "2003-046A",
        "meta_epoch": "2025-12-20T04:13:25.624992",
        "meta_mean_motion": 14.36077921,
        "meta_eccentricity": 0.0064625,
        "meta_inclination": 98.2171,
        "meta_ra_of_asc_node": 34.2388,
        "meta_arg_of_pericenter": 158.4359,
        "meta_mean_anomaly": 293.8794,
        "meta_ephemeris_type": 0,
        "meta_classification_type": "U",
        "meta_norad_cat_id": 28051,
        "meta_element_set_no": 999,
        "meta_rev_at_epoch": 15483,
        "meta_bstar": 5.3831e-05,
        "meta_mean_motion_dot": 1.2e-06,
        "meta_mean_motion_ddot": 0,
        "tle_line1": "1 28051U 03046A   25354.17599103  .00000120  00000+0  53831-4 0  9999",
        "tle_line2": "2 28051  98.2171  34.2388 0064625 158.4359 293.8794 14.36077921154835"
      },
      "geometry": {
        "type": "Point",
        "coordinates": [
          -152.61343394559063,
          -40.70745151892552
        ]
      }
    },
    {
      "type": "Feature",
      "properties": {
        "norad_id": 28220,
        "name": "SHIYAN-1 (SY-1)",
        "group": "resource",
        "lat": 41.14053274200943,
        "lon": -116.56314936175866,
        "alt_km": 480.85880901514975,
        "timestamp": "2025-12-20T11:30:28.027521+00:00",
        "meta_object_name": "SHIYAN-1 (SY-1)",
        "meta_object_id": "2004-012A",
        "meta_epoch": "2025-12-20T03:02:51.484992",
        "meta_mean_motion": 15.28323257,
        "meta_eccentricity": 0.0005246,
        "meta_inclination": 97.893,
        "meta_ra_of_asc_node": 56.1022,
        "meta_arg_of_pericenter": 295.057,
        "meta_mean_anomaly": 65.0123,
        "meta_ephemeris_type": 0,
        "meta_classification_type": "U",
        "meta_norad_cat_id": 28220,
        "meta_element_set_no": 999,
        "meta_rev_at_epoch": 18369,
        "meta_bstar": 0.00034013,
        "meta_mean_motion_dot": 9.306e-05,
        "meta_mean_motion_ddot": 0,
        "tle_line1": "1 28220U 04012A   25354.12698478  .00009306  00000+0  34013-3 0  9996",
        "tle_line2": "2 28220  97.8930  56.1022 0005246 295.0570  65.0123 15.28323257183695"
      },
      "geometry": {
        "type": "Point",
        "coordinates": [
          -116.56314936175866,
          41.14053274200943
        ]
      }
    },
    {
      "type": "Feature",
      "properties": {
        "norad_id": 28376,
        "name": "AURA",
        "group": "resource",
        "lat": 77.26277586010177,
        "lon": 165.084453782611,
        "alt_km": 681.8335952175294,
        "timestamp": "2025-12-20T11:30:28.027532+00:00",
        "meta_object_name": "AURA",
        "meta_object_id": "2004-026A",
        "meta_epoch": "2025-12-20T04:28:42.571776",
        "meta_mean_motion": 14.60962313,
        "meta_eccentricity": 0.0001369,
        "meta_inclination": 98.3195,
        "meta_ra_of_asc_node": 304.4481,
        "meta_arg_of_pericenter": 92.9547,
        "meta_mean_anomaly": 267.181,
        "meta_ephemeris_type": 0,
        "meta_classification_type": "U",
        "meta_norad_cat_id": 28376,
        "meta_element_set_no": 999,
        "meta_rev_at_epoch": 14007,
        "meta_bstar": 0.00015461,
        "meta_mean_motion_dot": 7.1e-06,
        "meta_mean_motion_ddot": 0,
        "tle_line1": "1 28376U 04026A   25354.18660384  .00000710  00000+0  15461-3 0  9990",
        "tle_line2": "2 28376  98.3195 304.4481 0001369  92.9547 267.1810 14.60962313140074"
      },
      "geometry": {
        "type": "Point",
        "coordinates": [
          165.084453782611,
          77.26277586010177
        ]
      }
    },
    {
      "type": "Feature",
      "properties": {
        "norad_id": 28649,
        "name": "IRS-P5 (CARTOSAT-1)",
        "group": "resource",
        "lat": 51.191368854455035,
        "lon": 11.059322728832454,
        "alt_km": 591.3410946139929,
        "timestamp": "2025-12-20T11:30:28.027544+00:00",
        "meta_object_name": "IRS-P5 (CARTOSAT-1)",
        "meta_object_id": "2005-017A",
        "meta_epoch": "2025-12-19T23:59:49.911936",
        "meta_mean_motion": 14.90427288,
        "meta_eccentricity": 8.04e-05,
        "meta_inclination": 97.5486,
        "meta_ra_of_asc_node": 20.0911,
        "meta_arg_of_pericenter": 50.7358,
        "meta_mean_anomaly": 309.3932,
        "meta_ephemeris_type": 0,
        "meta_classification_type": "U",
        "meta_norad_cat_id": 28649,
        "meta_element_set_no": 999,
        "meta_rev_at_epoch": 11712,
        "meta_bstar": 0.00010856,
        "meta_mean_motion_dot": 1.006e-05,
        "meta_mean_motion_ddot": 0,
        "tle_line1": "1 28649U 05017A   25353.99988324  .00001006  00000+0  10856-3 0  9991",
        "tle_line2": "2 28649  97.5486  20.0911 0000804  50.7358 309.3932 14.90427288117129"
      },
      "geometry": {
        "type": "Point",
        "coordinates": [
          11.059322728832454,
          51.191368854455035
        ]
      }
    },
    {
      "type": "Feature",
      "properties": {
        "norad_id": 28893,
        "name": "SINAH 1",
        "group": "resource",
        "lat": 29.139469367254993,
        "lon": 118.41180525025133,
        "alt_km": 677.9505251001765,
        "timestamp": "2025-12-20T11:30:28.027555+00:00",
        "meta_object_name": "SINAH 1",
        "meta_object_id": "2005-043D",
        "meta_epoch": "2025-12-20T01:31:52.970592",
        "meta_mean_motion": 14.63969627,
        "meta_eccentricity": 0.0015627,
        "meta_inclination": 98.2608,
        "meta_ra_of_asc_node": 122.6408,
        "meta_arg_of_pericenter": 115.5487,
        "meta_mean_anomaly": 244.7332,
        "meta_ephemeris_type": 0,
        "meta_classification_type": "U",
        "meta_norad_cat_id": 28893,
        "meta_element_set_no": 999,
        "meta_rev_at_epoch": 7431,
        "meta_bstar": 6.4368e-05,
        "meta_mean_motion_dot": 2.89e-06,
        "meta_mean_motion_ddot": 0,
        "tle_line1": "1 28893U 05043D   25354.06380753  .00000289  00000+0  64368-4 0  9992",
        "tle_line2": "2 28893  98.2608 122.6408 0015627 115.5487 244.7332 14.63969627 74313"
      },
      "geometry": {
        "type": "Point",
        "coordinates": [
          118.41180525025133,
          29.139469367254993
        ]
      }
    },
    {
      "type": "Feature",
      "properties": {
        "norad_id": 29079,
        "name": "EROS B",
        "group": "resource",
        "lat": 81.34443979507876,
        "lon": -10.6136823578759,
        "alt_km": 351.64838704775684,
        "timestamp": "2025-12-20T11:30:28.027565+00:00",
        "meta_object_name": "EROS B",
        "meta_object_id": "2006-014A",
        "meta_epoch": "2025-12-20T03:27:39.604896",
        "meta_mean_motion": 15.70537834,
        "meta_eccentricity": 0.0003503,
        "meta_inclination": 97.3468,
        "meta_ra_of_asc_node": 111.0831,
        "meta_arg_of_pericenter": 310.2859,
        "meta_mean_anomaly": 49.8096,
        "meta_ephemeris_type": 0,
        "meta_classification_type": "U",
        "meta_norad_cat_id": 29079,
        "meta_element_set_no": 999,
        "meta_rev_at_epoch": 9196,
        "meta_bstar": 0.0010787,
        "meta_mean_motion_dot": 0.00134151,
        "meta_mean_motion_ddot": 0,
        "tle_line1": "1 29079U 06014A   25354.14420839  .00134151  00000+0  10787-2 0  9997",
        "tle_line2": "2 29079  97.3468 111.0831 0003503 310.2859  49.8096 15.70537834 91964"
      },
      "geometry": {
        "type": "Point",
        "coordinates": [
          -10.6136823578759,
          81.34443979507876
        ]
      }
    },
    {
      "type": "Feature",
      "properties": {
        "norad_id": 29228,
        "name": "RESURS-DK 1",
        "group": "resource",
        "lat": -45.054580872005914,
        "lon": -76.6796736548164,
        "alt_km": 531.2730146207423,
        "timestamp": "2025-12-20T11:30:28.027585+00:00",
        "meta_object_name": "RESURS-DK 1",
        "meta_object_id": "2006-021A",
        "meta_epoch": "2025-12-19T17:02:08.743488",
        "meta_mean_motion": 15.12197286,
        "meta_eccentricity": 0.0006864,
        "meta_inclination": 69.9339,
        "meta_ra_of_asc_node": 83.8253,
        "meta_arg_of_pericenter": 253.3624,
        "meta_mean_anomaly": 106.6789,
        "meta_ephemeris_type": 0,
        "meta_classification_type": "U",
        "meta_norad_cat_id": 29228,
        "meta_element_set_no": 999,
        "meta_rev_at_epoch": 7543,
        "meta_bstar": 0.00011372674,
        "meta_mean_motion_dot": 1.861e-05,
        "meta_mean_motion_ddot": 0,
        "tle_line1": "1 29228U 06021A   25353.70982342  .00001861  00000+0  11373-3 0  9998",
        "tle_line2": "2 29228  69.9339  83.8253 0006864 253.3624 106.6789 15.12197286 75430"
      },
      "geometry": {
        "type": "Point",
        "coordinates": [
          -76.6796736548164,
          -45.054580872005914
        ]
      }
    }
  ]
}